start=new Date('2021-12-04T00:00:00.000Z').valueOf();
sats=[{"EPHEMERIS_TYPE":"0","OBJECT_NAME":"STARLINK-2365","COUNTRY_CODE":"US","TLE_LINE2":"2 47905  53.0568  51.9916 0001220  72.9904 287.1218 15.06385569 41744","GP_ID":"191011856","MEAN_ELEMENT_THEORY":"SGP4","TIME_SYSTEM":"UTC","PERIOD":"95.593","MEAN_MOTION_DDOT":"0.0000000000000","REF_FRAME":"TEME","SEMIMAJOR_AXIS":"6925.393","OBJECT_TYPE":"PAYLOAD","INCLINATION":"53.0568","EPOCH":"2021-12-03T12:38:45.176928","RA_OF_ASC_NODE":"51.9916","ARG_OF_PERICENTER":"72.9904","REV_AT_EPOCH":"4174","DECAY_DATE":null,"TLE_LINE1":"1 47905U 21021AX  21337.52691177  .00000508  00000-0  53027-4 0  9999","ELEMENT_SET_NO":"999","CENTER_NAME":"EARTH","OBJECT_ID":"2021-021AX","MEAN_ANOMALY":"287.1218","NORAD_CAT_ID":"47905","SITE":"AFETR","ECCENTRICITY":"0.00012200","MEAN_MOTION":"15.06385569","APOAPSIS":"548.103","CLASSIFICATION_TYPE":"U","LAUNCH_DATE":"2021-03-14","MEAN_MOTION_DOT":"0.00000508","PERIAPSIS":"546.413","RCS_SIZE":"LARGE","BSTAR":"0.00005302700000","FILE":"3231740"},{"APOAPSIS":"340.507","CLASSIFICATION_TYPE":"U","LAUNCH_DATE":"2021-03-14","MEAN_MOTION_DOT":"0.00031681","PERIAPSIS":"339.129","RCS_SIZE":"LARGE","BSTAR":"0.00019712000000","FILE":"3231740","ECCENTRICITY":"0.00010250","MEAN_MOTION":"15.76693673","ELEMENT_SET_NO":"999","CENTER_NAME":"EARTH","OBJECT_ID":"2021-021AY","MEAN_ANOMALY":"257.0753","NORAD_CAT_ID":"47906","SITE":"AFETR","EPOCH":"2021-12-03T10:00:58.945824","RA_OF_ASC_NODE":"352.4260","ARG_OF_PERICENTER":"103.0381","REV_AT_EPOCH":"4256","DECAY_DATE":null,"TLE_LINE1":"1 47906U 21021AY  21337.41734891  .00031681  00000-0  19712-3 0  9997","SEMIMAJOR_AXIS":"6717.953","INCLINATION":"53.0508","OBJECT_TYPE":"PAYLOAD","MEAN_MOTION_DDOT":"0.0000000000000","REF_FRAME":"TEME","MEAN_ELEMENT_THEORY":"SGP4","TIME_SYSTEM":"UTC","PERIOD":"91.330","EPHEMERIS_TYPE":"0","OBJECT_NAME":"STARLINK-2366","COUNTRY_CODE":"US","TLE_LINE2":"2 47906  53.0508 352.4260 0001025 103.0381 257.0753 15.76693673 42564","GP_ID":"191011104"},{"ELEMENT_SET_NO":"999","CENTER_NAME":"EARTH","OBJECT_ID":"2021-021AZ","MEAN_ANOMALY":"274.7437","NORAD_CAT_ID":"47907","SITE":"AFETR","EPOCH":"2021-12-03T14:27:33.424416","RA_OF_ASC_NODE":"71.6583","ARG_OF_PERICENTER":"85.3716","REV_AT_EPOCH":"4132","DECAY_DATE":null,"TLE_LINE1":"1 47907U 21021AZ  21337.60247019  .00001053  00000-0  89582-4 0  9993","CLASSIFICATION_TYPE":"U","APOAPSIS":"548.232","LAUNCH_DATE":"2021-03-14","PERIAPSIS":"546.247","MEAN_MOTION_DOT":"0.00001053","RCS_SIZE":"LARGE","BSTAR":"0.00008958200000","FILE":"3231910","ECCENTRICITY":"0.00014330","MEAN_MOTION":"15.06391500","MEAN_ELEMENT_THEORY":"SGP4","PERIOD":"95.593","TIME_SYSTEM":"UTC","EPHEMERIS_TYPE":"0","OBJECT_NAME":"STARLINK-2367","COUNTRY_CODE":"US","TLE_LINE2":"2 47907  53.0570  71.6583 0001433  85.3716 274.7437 15.06391500 41324","GP_ID":"191039309","SEMIMAJOR_AXIS":"6925.375","INCLINATION":"53.0570","OBJECT_TYPE":"PAYLOAD","MEAN_MOTION_DDOT":"0.0000000000000","REF_FRAME":"TEME"},{"FILE":"3231910","BSTAR":"-0.00010228000000","LAUNCH_DATE":"2021-03-14","PERIAPSIS":"546.481","MEAN_MOTION_DOT":"-0.00001804","RCS_SIZE":"LARGE","CLASSIFICATION_TYPE":"U","APOAPSIS":"548.022","MEAN_MOTION":"15.06387580","ECCENTRICITY":"0.00011130","MEAN_ANOMALY":"277.0591","NORAD_CAT_ID":"47908","SITE":"AFETR","OBJECT_ID":"2021-021BA","CENTER_NAME":"EARTH","ELEMENT_SET_NO":"999","TLE_LINE1":"1 47908U 21021BA  21337.67618826 -.00001804  00000-0 -10228-3 0  9995","REV_AT_EPOCH":"4136","DECAY_DATE":null,"EPOCH":"2021-12-03T16:13:42.665664","RA_OF_ASC_NODE":"71.3213","ARG_OF_PERICENTER":"83.0525","OBJECT_TYPE":"PAYLOAD","INCLINATION":"53.0569","SEMIMAJOR_AXIS":"6925.387","REF_FRAME":"TEME","MEAN_MOTION_DDOT":"0.0000000000000","PERIOD":"95.593","TIME_SYSTEM":"UTC","MEAN_ELEMENT_THEORY":"SGP4","GP_ID":"191039060","TLE_LINE2":"2 47908  53.0569  71.3213 0001113  83.0525 277.0591 15.06387580 41362","COUNTRY_CODE":"US","EPHEMERIS_TYPE":"0","OBJECT_NAME":"STARLINK-2368"},{"SEMIMAJOR_AXIS":"6925.354","INCLINATION":"53.0579","OBJECT_TYPE":"PAYLOAD","MEAN_MOTION_DDOT":"0.0000000000000","REF_FRAME":"TEME","MEAN_ELEMENT_THEORY":"SGP4","TIME_SYSTEM":"UTC","PERIOD":"95.592","OBJECT_NAME":"STARLINK-2369","EPHEMERIS_TYPE":"0","COUNTRY_CODE":"US","TLE_LINE2":"2 47909  53.0579  62.1513 0001154  85.9210 274.1911 15.06398306 41645","GP_ID":"191012356","CLASSIFICATION_TYPE":"U","APOAPSIS":"548.018","RCS_SIZE":"MEDIUM","PERIAPSIS":"546.420","LAUNCH_DATE":"2021-03-14","MEAN_MOTION_DOT":"0.00000478","FILE":"3231740","BSTAR":"0.00005098800000","ECCENTRICITY":"0.00011540","MEAN_MOTION":"15.06398306","ELEMENT_SET_NO":"999","CENTER_NAME":"EARTH","OBJECT_ID":"2021-021BB","SITE":"AFETR","MEAN_ANOMALY":"274.1911","NORAD_CAT_ID":"47909","ARG_OF_PERICENTER":"85.9210","EPOCH":"2021-12-03T11:49:38.796096","RA_OF_ASC_NODE":"62.1513","DECAY_DATE":null,"REV_AT_EPOCH":"4164","TLE_LINE1":"1 47909U 21021BB  21337.49281014  .00000478  00000-0  50988-4 0  9993"},{"CLASSIFICATION_TYPE":"U","APOAPSIS":"548.234","RCS_SIZE":"LARGE","PERIAPSIS":"546.253","LAUNCH_DATE":"2021-03-14","MEAN_MOTION_DOT":"0.00000639","FILE":"3231910","BSTAR":"0.00006181900000","ECCENTRICITY":"0.00014300","MEAN_MOTION":"15.06390184","ELEMENT_SET_NO":"999","CENTER_NAME":"EARTH","OBJECT_ID":"2021-021BC","SITE":"AFETR","MEAN_ANOMALY":"293.7343","NORAD_CAT_ID":"47910","ARG_OF_PERICENTER":"66.3796","EPOCH":"2021-12-03T15:52:26.631840","RA_OF_ASC_NODE":"61.3780","DECAY_DATE":null,"REV_AT_EPOCH":"4152","TLE_LINE1":"1 47910U 21021BC  21337.66141935  .00000639  00000-0  61819-4 0  9995","SEMIMAJOR_AXIS":"6925.379","INCLINATION":"53.0561","OBJECT_TYPE":"PAYLOAD","MEAN_MOTION_DDOT":"0.0000000000000","REF_FRAME":"TEME","MEAN_ELEMENT_THEORY":"SGP4","PERIOD":"95.593","TIME_SYSTEM":"UTC","OBJECT_NAME":"STARLINK-2370","EPHEMERIS_TYPE":"0","COUNTRY_CODE":"US","TLE_LINE2":"2 47910  53.0561  61.3780 0001430  66.3796 293.7343 15.06390184 41523","GP_ID":"191038558"},{"MEAN_MOTION":"15.06390789","ECCENTRICITY":"0.00014110","BSTAR":"0.00003372200000","FILE":"3231740","CLASSIFICATION_TYPE":"U","APOAPSIS":"548.219","PERIAPSIS":"546.265","LAUNCH_DATE":"2021-03-14","MEAN_MOTION_DOT":"0.00000221","RCS_SIZE":"LARGE","REV_AT_EPOCH":"4112","DECAY_DATE":null,"TLE_LINE1":"1 47911U 21021BD  21337.52181551  .00000221  00000-0  33722-4 0  9998","EPOCH":"2021-12-03T12:31:24.860064","RA_OF_ASC_NODE":"77.0246","ARG_OF_PERICENTER":"80.8108","OBJECT_ID":"2021-021BD","NORAD_CAT_ID":"47911","MEAN_ANOMALY":"279.3041","SITE":"AFETR","ELEMENT_SET_NO":"999","CENTER_NAME":"EARTH","MEAN_MOTION_DDOT":"0.0000000000000","REF_FRAME":"TEME","OBJECT_TYPE":"PAYLOAD","INCLINATION":"53.0581","SEMIMAJOR_AXIS":"6925.377","TLE_LINE2":"2 47911  53.0581  77.0246 0001411  80.8108 279.3041 15.06390789 41126","GP_ID":"191010855","EPHEMERIS_TYPE":"0","OBJECT_NAME":"STARLINK-2371","COUNTRY_CODE":"US","TIME_SYSTEM":"UTC","PERIOD":"95.593","MEAN_ELEMENT_THEORY":"SGP4"},{"MEAN_ELEMENT_THEORY":"SGP4","TIME_SYSTEM":"UTC","PERIOD":"95.592","EPHEMERIS_TYPE":"0","OBJECT_NAME":"STARLINK-2372","COUNTRY_CODE":"US","TLE_LINE2":"2 47912  53.0544  61.1139 0001151  70.6197 289.4916 15.06397358 41365","GP_ID":"191039560","SEMIMAJOR_AXIS":"6925.357","INCLINATION":"53.0544","OBJECT_TYPE":"PAYLOAD","MEAN_MOTION_DDOT":"0.0000000000000","REF_FRAME":"TEME","ELEMENT_SET_NO":"999","CENTER_NAME":"EARTH","OBJECT_ID":"2021-021BE","MEAN_ANOMALY":"289.4916","NORAD_CAT_ID":"47912","SITE":"AFETR","RA_OF_ASC_NODE":"61.1139","EPOCH":"2021-12-03T17:18:43.412256","ARG_OF_PERICENTER":"70.6197","REV_AT_EPOCH":"4136","DECAY_DATE":null,"TLE_LINE1":"1 47912U 21021BE  21337.72133579  .00000843  00000-0  75478-4 0  9992","APOAPSIS":"548.019","CLASSIFICATION_TYPE":"U","LAUNCH_DATE":"2021-03-14","PERIAPSIS":"546.425","MEAN_MOTION_DOT":"0.00000843","RCS_SIZE":"LARGE","FILE":"3231910","BSTAR":"0.00007547800000","ECCENTRICITY":"0.00011510","MEAN_MOTION":"15.06397358"},{"MEAN_MOTION":"15.07095914","ECCENTRICITY":"0.00029330","FILE":"3231740","BSTAR":"0.00628200000000","MEAN_MOTION_DOT":"0.00096379","LAUNCH_DATE":"2021-03-14","PERIAPSIS":"543.051","RCS_SIZE":"LARGE","APOAPSIS":"547.112","CLASSIFICATION_TYPE":"U","TLE_LINE1":"1 47913U 21021BF  21337.41661472  .00096379  00000-0  62820-2 0  9991","REV_AT_EPOCH":"4134","DECAY_DATE":null,"EPOCH":"2021-12-03T09:59:55.511808","RA_OF_ASC_NODE":"72.4908","ARG_OF_PERICENTER":"204.8497","MEAN_ANOMALY":"155.2352","NORAD_CAT_ID":"47913","SITE":"AFETR","OBJECT_ID":"2021-021BF","CENTER_NAME":"EARTH","ELEMENT_SET_NO":"999","REF_FRAME":"TEME","MEAN_MOTION_DDOT":"0.0000000000000","OBJECT_TYPE":"PAYLOAD","INCLINATION":"53.0582","SEMIMAJOR_AXIS":"6923.217","GP_ID":"191011857","TLE_LINE2":"2 47913  53.0582  72.4908 0002933 204.8497 155.2352 15.07095914 41346","COUNTRY_CODE":"US","EPHEMERIS_TYPE":"0","OBJECT_NAME":"STARLINK-2374","PERIOD":"95.548","TIME_SYSTEM":"UTC","MEAN_ELEMENT_THEORY":"SGP4"},{"REF_FRAME":"TEME","MEAN_MOTION_DDOT":"0.0000000000000","SEMIMAJOR_AXIS":"6925.383","INCLINATION":"53.0570","OBJECT_TYPE":"PAYLOAD","COUNTRY_CODE":"US","OBJECT_NAME":"STARLINK-2375","EPHEMERIS_TYPE":"0","GP_ID":"191013867","TLE_LINE2":"2 47914  53.0570  71.9062 0001179  88.7282 271.3842 15.06388772 40878","MEAN_ELEMENT_THEORY":"SGP4","PERIOD":"95.593","TIME_SYSTEM":"UTC","ECCENTRICITY":"0.00011790","MEAN_MOTION":"15.06388772","RCS_SIZE":"LARGE","MEAN_MOTION_DOT":"-0.00001485","LAUNCH_DATE":"2021-03-14","PERIAPSIS":"546.431","APOAPSIS":"548.064","CLASSIFICATION_TYPE":"U","FILE":"3231771","BSTAR":"-0.00008086500000","ARG_OF_PERICENTER":"88.7282","RA_OF_ASC_NODE":"71.9062","EPOCH":"2021-12-03T13:07:55.985664","TLE_LINE1":"1 47914U 21021BG  21337.54717576 -.00001485  00000-0 -80865-4 0  9990","DECAY_DATE":null,"REV_AT_EPOCH":"4087","CENTER_NAME":"EARTH","ELEMENT_SET_NO":"999","SITE":"AFETR","NORAD_CAT_ID":"47914","MEAN_ANOMALY":"271.3842","OBJECT_ID":"2021-021BG"}];
